SAR-LUPE 2              
1 31797U 07030A   26196.19773338  .00014904  00000+0  23521-3 0  9995
2 31797  98.1069 304.1958 0004884 201.8723 158.2321 15.53631507 61284
SAPPHIRE                
1 39088U 13009C   26196.18720758  .00000037  00000+0  27924-4 0  9990
2 39088  98.4273  14.9799 0011586 159.9341 200.2302 14.35247573700596
PRAETORIAN SDA_602      
1 65565U 25203A   26195.92915722  .00000018  00000+0  52071-5 0  9997
2 65565  81.3043 345.0821 0007056 118.1689 242.0181 13.83887829 42532
PRAETORIAN SDA_603      
1 65566U 25203B   26195.88516126  .00000035  00000+0  20600-4 0  9999
2 65566  81.3049 345.0448 0010740 115.5465 244.6804 13.83961998 42531
PRAETORIAN SDA_604      
1 65567U 25203C   26195.92252219  .00000016  00000+0  39922-5 0  9992
2 65567  81.3066 345.4654 0006561 121.9656 238.2139 13.83049990 42510
PRAETORIAN SDA_605      
1 65568U 25203D   26195.88224065  .00000026  00000+0  12839-4 0  9994
2 65568  81.3030 345.1435 0009309 113.9615 246.2517 13.83199973 42522
PRAETORIAN SDA_606      
1 65569U 25203E   26195.93974983  .00000022  00000+0  93363-5 0  9990
2 65569  81.3067 345.3283 0007165 116.6747 243.5143 13.83200069 42524
PRAETORIAN SDA_607      
1 65570U 25203F   26195.85790491  .00000099  00000+0  78630-4 0  9996
2 65570  81.3048 345.0242 0009936 115.3374 244.8813 13.83758530 42537
PRAETORIAN SDA_608      
1 65571U 25203G   26195.91274728  .00000026  00000+0  12840-4 0  9995
2 65571  81.3019 345.1375 0007048 120.8680 239.3171 13.83819391 42525
PRAETORIAN SDA_609      
1 65572U 25203H   26195.90980594  .00000113  00000+0  90205-4 0  9998
2 65572  81.3062 345.1183 0007967 115.5261 244.6720 13.84211008 42539
PRAETORIAN SDA_610      
1 65573U 25203J   26195.89458527  .00000059  00000+0  42775-4 0  9991
2 65573  81.3021 345.1171 0007781 120.4935 239.6991 13.83528181 42524
PRAETORIAN SDA_611      
1 65574U 25203K   26195.90344882  .00000018  00000+0  55293-5 0  9997
2 65574  81.3023 345.2908 0006590 124.2970 235.8811 13.83311986 42515
PRAETORIAN SDA_612      
1 65575U 25203L   26195.93071877  .00000106  00000+0  82724-4 0  9998
2 65575  81.3041 344.7853 0010331 114.9274 245.2958 13.85039965 42557
PRAETORIAN SDA_613      
1 65576U 25203M   26195.92108516  .00000028  00000+0  15075-4 0  9997
2 65576  81.3012 345.2937 0006767 115.4514 244.7343 13.82767634 42512
PRAETORIAN SDA_614      
1 65577U 25203N   26195.92513582  .00000016  00000+0  31292-5 0  9998
2 65577  81.3027 344.8743 0008211 113.8300 246.3719 13.84778518 42554
PRAETORIAN SDA_615      
1 65578U 25203P   26195.90884802  .00000089  00000+0  68386-4 0  9996
2 65578  81.3039 344.8713 0010208 114.5299 245.6923 13.84437703 42545
PRAETORIAN SDA_616      
1 65579U 25203Q   26195.90348921  .00000085  00000+0  66248-4 0  9995
2 65579  81.3081 345.4554 0006673 122.5814 237.5987 13.83269103 42519
PRAETORIAN SDA_617      
1 65580U 25203R   26195.92745832  .00000031  00000+0  17189-4 0  9992
2 65580  81.3050 345.2617 0008473 114.3061 245.8981 13.83152113 42527
PRAETORIAN SDA_618      
1 65581U 25203S   26195.94843116  .00000250  00000+0  21312-3 0  9994
2 65581  81.3035 344.7647 0011095 117.7443 242.4840 13.84223993 42559
PRAETORIAN SDA_619      
1 65582U 25203T   26195.92346271  .00000140  00000+0  11527-3 0  9998
2 65582  81.3058 345.1172 0009405 114.7898 245.4238 13.83804481 43164
PRAETORIAN SDA_620      
1 65583U 25203U   26195.88610911  .00000074  00000+0  56578-4 0  9991
2 65583  81.3049 345.1841 0008793 112.7607 247.4479 13.83205898 42528
PRAETORIAN SDA_621      
1 65584U 25203V   26195.92529956  .00000013  00000+0  12933-5 0  9996
2 65584  81.3033 345.0478 0008486 109.4970 250.7103 13.83803701 42531
PRAETORIAN SDA_601      
1 65585U 25203W   26195.90862804 -.00000076  00000+0 -80054-4 0  9996
2 65585  81.3055 345.3911 0006609 125.3788 234.7987 13.83170179 42516
VICTUS HAZE PUMA        
1 69646U 26142A   26195.78469194  .00001975  00000+0  92002-4 0  9995
2 69646  97.4467  93.0928 0025040 267.3590  92.4779 15.20845903  3866
