OBJECT_NAME,OBJECT_ID,EPOCH,MEAN_MOTION,ECCENTRICITY,INCLINATION,RA_OF_ASC_NODE,ARG_OF_PERICENTER,MEAN_ANOMALY,EPHEMERIS_TYPE,CLASSIFICATION_TYPE,NORAD_CAT_ID,ELEMENT_SET_NO,REV_AT_EPOCH,BSTAR,MEAN_MOTION_DOT,MEAN_MOTION_DDOT
SAR-LUPE 2,2007-030A,2026-07-15T04:44:44.164032,15.53631507,.0004884,98.1069,304.1958,201.8723,158.2321,0,U,31797,999,6128,.23521E-3,.14904E-3,0
SAPPHIRE,2013-009C,2026-07-15T04:29:34.734912,14.35247573,.0011586,98.4273,14.9799,159.9341,200.2302,0,U,39088,999,70059,.27924E-4,.37E-6,0
PRAETORIAN SDA_602,2025-203A,2026-07-14T22:17:59.183808,13.83887829,.0007056,81.3043,345.0821,118.1689,242.0181,0,U,65565,999,4253,.52071E-5,.18E-6,0
PRAETORIAN SDA_603,2025-203B,2026-07-14T21:14:37.932864,13.83961998,.001074,81.3049,345.0448,115.5465,244.6804,0,U,65566,999,4253,.206E-4,.35E-6,0
PRAETORIAN SDA_604,2025-203C,2026-07-14T22:08:25.917216,13.83049990,.0006561,81.3066,345.4654,121.9656,238.2139,0,U,65567,999,4251,.39922E-5,.16E-6,0
PRAETORIAN SDA_605,2025-203D,2026-07-14T21:10:25.592160,13.83199973,.0009309,81.3030,345.1435,113.9615,246.2517,0,U,65568,999,4252,.12839E-4,.26E-6,0
PRAETORIAN SDA_606,2025-203E,2026-07-14T22:33:14.385312,13.83200069,.0007165,81.3067,345.3283,116.6747,243.5143,0,U,65569,999,4252,.93363E-5,.22E-6,0
PRAETORIAN SDA_607,2025-203F,2026-07-14T20:35:22.984224,13.83758530,.0009936,81.3048,345.0242,115.3374,244.8813,0,U,65570,999,4253,.7863E-4,.99E-6,0
PRAETORIAN SDA_608,2025-203G,2026-07-14T21:54:21.364992,13.83819391,.0007048,81.3019,345.1375,120.8680,239.3171,0,U,65571,999,4252,.1284E-4,.26E-6,0
PRAETORIAN SDA_609,2025-203H,2026-07-14T21:50:07.233216,13.84211008,.0007967,81.3062,345.1183,115.5261,244.6720,0,U,65572,999,4253,.90205E-4,.113E-5,0
PRAETORIAN SDA_610,2025-203J,2026-07-14T21:28:12.167328,13.83528181,.0007781,81.3021,345.1171,120.4935,239.6991,0,U,65573,999,4252,.42775E-4,.59E-6,0
PRAETORIAN SDA_611,2025-203K,2026-07-14T21:40:57.978048,13.83311986,.000659,81.3023,345.2908,124.2970,235.8811,0,U,65574,999,4251,.55293E-5,.18E-6,0
PRAETORIAN SDA_612,2025-203L,2026-07-14T22:20:14.101728,13.85039965,.0010331,81.3041,344.7853,114.9274,245.2958,0,U,65575,999,4255,.82724E-4,.106E-5,0
PRAETORIAN SDA_613,2025-203M,2026-07-14T22:06:21.757824,13.82767634,.0006767,81.3012,345.2937,115.4514,244.7343,0,U,65576,999,4251,.15075E-4,.28E-6,0
PRAETORIAN SDA_614,2025-203N,2026-07-14T22:12:11.734848,13.84778518,.0008211,81.3027,344.8743,113.8300,246.3719,0,U,65577,999,4255,.31292E-5,.16E-6,0
PRAETORIAN SDA_615,2025-203P,2026-07-14T21:48:44.468928,13.84437703,.0010208,81.3039,344.8713,114.5299,245.6923,0,U,65578,999,4254,.68386E-4,.89E-6,0
PRAETORIAN SDA_616,2025-203Q,2026-07-14T21:41:01.467744,13.83269103,.0006673,81.3081,345.4554,122.5814,237.5987,0,U,65579,999,4251,.66248E-4,.85E-6,0
PRAETORIAN SDA_617,2025-203R,2026-07-14T22:15:32.398848,13.83152113,.0008473,81.3050,345.2617,114.3061,245.8981,0,U,65580,999,4252,.17189E-4,.31E-6,0
PRAETORIAN SDA_618,2025-203S,2026-07-14T22:45:44.452224,13.84223993,.0011095,81.3035,344.7647,117.7443,242.4840,0,U,65581,999,4255,.21312E-3,.25E-5,0
PRAETORIAN SDA_619,2025-203T,2026-07-14T22:09:47.178144,13.83804481,.0009405,81.3058,345.1172,114.7898,245.4238,0,U,65582,999,4316,.11527E-3,.14E-5,0
PRAETORIAN SDA_620,2025-203U,2026-07-14T21:15:59.827104,13.83205898,.0008793,81.3049,345.1841,112.7607,247.4479,0,U,65583,999,4252,.56578E-4,.74E-6,0
PRAETORIAN SDA_621,2025-203V,2026-07-14T22:12:25.881984,13.83803701,.0008486,81.3033,345.0478,109.4970,250.7103,0,U,65584,999,4253,.12933E-5,.13E-6,0
PRAETORIAN SDA_601,2025-203W,2026-07-14T21:48:25.462656,13.83170179,.0006609,81.3055,345.3911,125.3788,234.7987,0,U,65585,999,4251,-.80054E-4,-.76E-6,0
VICTUS HAZE PUMA,2026-142A,2026-07-14T18:49:57.383616,15.20845903,.00250405,97.4467,93.0928,267.3590,92.4779,0,U,69646,999,386,.92001941E-4,.1975E-4,0
